NORAD_CAT_ID,OBJECT_NAME,OBJECT_TYPE,EPOCH,MEAN_MOTION,ECCENTRICITY,INCLINATION,RA_OF_ASC_NODE,ARG_OF_PERICENTER,MEAN_ANOMALY,BSTAR,MEAN_MOTION_DOT,MEAN_MOTION_DDOT,TLE_LINE0,TLE_LINE1,TLE_LINE2,SEMIMAJOR_AXIS,PERIOD,APOGEE,PERIGEE,DECAYED
53577.0,STARLINK-4553,PAYLOAD,2023-12-17 15:00:52,15.08783172,0.0001631,53.2167,103.8575,77.2959,282.8215,0.00080295,0.00012494,0.0,0 STARLINK-4553,1 53577U 22101BC  23351.62560377  .00012494  00000-0  80295-3 0  9990,2 53577  53.2167 103.8575 0001631  77.2959 282.8215 15.08783172 74520,6918.054,95.441,541.047,538.791,0.0
53577.0,STARLINK-4553,PAYLOAD,2023-12-18 11:40:51,15.08850215,0.0001514,53.217,99.991,70.8956,289.22,-1.0166e-05,-4.5e-06,0.0,0 STARLINK-4553,1 53577U 22101BC  23352.48671101 -.00000450  00000-0 -10166-4 0  9995,2 53577  53.2170  99.9910 0001514  70.8956 289.2200 15.08850215 73839,6917.849,95.437,540.762,538.667,0.0
53577.0,STARLINK-4553,PAYLOAD,2023-12-18 13:16:15,15.08793527,0.0001647,53.2169,99.6944,76.4875,283.6301,0.00073532,0.00011419,0.0,0 STARLINK-4553,1 53577U 22101BC  23352.55295901  .00011419  00000-0  73532-3 0  9993,2 53577  53.2169  99.6944 0001647  76.4875 283.6301 15.08793527 74664,6918.022,95.44,541.027,538.748,0.0
53577.0,STARLINK-4553,PAYLOAD,2023-12-18 14:51:38,15.08778586,0.0001697,53.2172,99.3966,81.3133,278.8051,0.0009961,0.00015574,0.0,0 STARLINK-4553,1 53577U 22101BC  23352.61920130  .00015574  00000-0  99610-3 0  9990,2 53577  53.2172  99.3966 0001697  81.3133 278.8051 15.08778586 73852,6918.068,95.441,541.107,538.759,0.0
53577.0,STARLINK-4553,PAYLOAD,2023-12-19 11:31:39,15.08840032,0.0002038,53.2189,95.5276,58.515,301.6041,4.5758e-06,-2.15e-06,0.0,0 STARLINK-4553,1 53577U 22101BC  23353.48031661 -.00000215  00000-0  45758-5 0  9991,2 53577  53.2189  95.5276 0002038  58.5150 301.6041 15.08840032 73981,6917.88,95.438,541.155,538.335,0.0
53577.0,STARLINK-4553,PAYLOAD,2023-12-19 14:42:25,15.08844889,0.000163,53.2189,94.9315,82.5807,277.537,1.9147e-05,1.7e-07,0.0,0 STARLINK-4553,1 53577U 22101BC  23353.61279065  .00000017  00000-0  19147-4 0  9999,2 53577  53.2189  94.9315 0001630  82.5807 277.5370 15.08844889 74825,6917.865,95.437,540.858,538.603,0.0
53577.0,STARLINK-4553,PAYLOAD,2023-12-20 11:22:27,15.08832094,0.0001653,53.2196,91.0684,65.3984,294.718,-6.5508e-05,-1.33e-05,0.0,0 STARLINK-4553,1 53577U 22101BC  23354.47392474 -.00001330  00000-0 -65508-4 0  9997,2 53577  53.2196  91.0684 0001653  65.3984 294.7180 15.08832094 74139,6917.905,95.438,540.913,538.626,0.0
53577.0,STARLINK-4553,PAYLOAD,2023-12-20 12:57:50,15.08836658,0.0001566,53.2179,90.7748,77.8115,282.3053,-9.4454e-05,-1.791e-05,0.0,0 STARLINK-4553,1 53577U 22101BC  23354.54016232 -.00001791  00000-0 -94454-4 0  9993,2 53577  53.2179  90.7748 0001566  77.8115 282.3053 15.08836658 74967,6917.891,95.438,540.839,538.672,0.0
53577.0,STARLINK-4553,PAYLOAD,2023-12-21 11:13:13,15.08841711,0.0001477,53.2187,86.6092,91.6701,268.4461,3.6109e-05,2.87e-06,0.0,0 STARLINK-4553,1 53577U 22101BC  23355.46751735  .00000287  00000-0  36109-4 0  9999,2 53577  53.2187  86.6092 0001477  91.6701 268.4461 15.08841711 74287,6917.875,95.437,540.762,538.718,0.0
53577.0,STARLINK-4553,PAYLOAD,2023-12-21 12:48:36,15.08843316,0.000151,53.218,86.3146,82.1807,277.9356,6.3857e-05,7.29e-06,0.0,0 STARLINK-4553,1 53577U 22101BC  23355.53375643  .00000729  00000-0  63857-4 0  9998,2 53577  53.2180  86.3146 0001510  82.1807 277.9356 15.08843316 75111,6917.87,95.437,540.78,538.691,0.0
53577.0,STARLINK-4553,PAYLOAD,2023-12-22 12:39:23,15.08841158,0.0001506,53.2187,81.8515,97.1148,263.0015,9.0822e-05,1.158e-05,0.0,0 STARLINK-4553,1 53577U 22101BC  23356.52735898  .00001158  00000-0  90822-4 0  9999,2 53577  53.2187  81.8515 0001506  97.1148 263.0015 15.08841158 75263,6917.877,95.437,540.784,538.7,0.0
53577.0,STARLINK-4553,PAYLOAD,2023-12-23 10:54:47,15.0885378,0.0001482,53.2192,77.6993,102.6628,257.4529,7.4715e-05,9.02e-06,0.0,0 STARLINK-4553,1 53577U 22101BC  23357.45471140  .00000902  00000-0  74715-4 0  9998,2 53577  53.2192  77.6993 0001482 102.6628 257.4529 15.08853780 74585,6917.838,95.437,540.728,538.678,0.0
53577.0,STARLINK-4553,PAYLOAD,2023-12-23 12:30:09,15.08859092,0.0001573,53.2193,77.3991,107.7922,252.3242,8.0736e-05,9.98e-06,0.0,0 STARLINK-4553,1 53577U 22101BC  23357.52094724  .00000998  00000-0  80736-4 0  9990,2 53577  53.2193  77.3991 0001573 107.7922 252.3242 15.08859092 75416,6917.822,95.436,540.775,538.599,0.0
53577.0,STARLINK-4553,PAYLOAD,2023-12-24 12:20:57,15.08843682,0.0001452,53.2181,72.9312,100.2642,259.8514,4.3811e-05,4.09e-06,0.0,0 STARLINK-4553,1 53577U 22101BC  23358.51455668  .00000409  00000-0  43811-4 0  9998,2 53577  53.2181  72.9312 0001452 100.2642 259.8514 15.08843682 74741,6917.869,95.437,540.739,538.73,0.0
53577.0,STARLINK-4553,PAYLOAD,2023-12-25 13:47:08,15.08844718,0.0001459,53.2185,68.1704,86.8731,273.2428,-4.9296e-05,-1.073e-05,0.0,0 STARLINK-4553,1 53577U 22101BC  23359.57439915 -.00001073  00000-0 -49296-4 0  9995,2 53577  53.2185  68.1704 0001459  86.8731 273.2428 15.08844718 75726,6917.866,95.437,540.74,538.722,0.0
53577.0,STARLINK-4553,PAYLOAD,2023-12-26 04:05:37,15.08829713,0.0001446,53.2176,65.4976,99.6015,260.5141,-2.4687e-06,-3.27e-06,0.0,0 STARLINK-4553,1 53577U 22101BC  23360.17057156 -.00000327  00000-0 -24687-5 0  9995,2 53577  53.2176  65.4976 0001446  99.6015 260.5141 15.08829713 74997,6917.912,95.438,540.777,538.777,0.0
53577.0,STARLINK-4553,PAYLOAD,2023-12-26 10:27:09,15.0883245,0.0001661,53.2185,64.3094,95.8785,264.2397,1.562e-05,-3.9e-07,0.0,0 STARLINK-4553,1 53577U 22101BC  23360.43553072 -.00000039  00000-0  15620-4 0  9997,2 53577  53.2185  64.3094 0001661  95.8785 264.2397 15.08832450 75859,6917.903,95.438,540.918,538.619,0.0
53577.0,STARLINK-4553,PAYLOAD,2023-12-27 03:56:24,15.08839652,0.0001545,53.2184,61.0376,93.0281,267.0888,6.9052e-05,8.11e-06,0.0,0 STARLINK-4553,1 53577U 22101BC  23361.16416799  .00000811  00000-0  69052-4 0  9997,2 53577  53.2184  61.0376 0001545  93.0281 267.0888 15.08839652 75146,6917.881,95.438,540.815,538.678,0.0
53577.0,STARLINK-4553,PAYLOAD,2023-12-27 11:53:19,15.0884564,0.0001567,53.2181,59.551,78.4278,281.689,0.00013156,1.807e-05,0.0,0 STARLINK-4553,1 53577U 22101BC  23361.49536434  .00001807  00000-0  13156-3 0  9991,2 53577  53.2181  59.5510 0001567  78.4278 281.6890 15.08845640 76018,6917.863,95.437,540.812,538.644,0.0
53577.0,STARLINK-4553,PAYLOAD,2023-12-28 10:08:44,15.08838527,0.0001742,53.2185,55.3887,68.7045,291.4133,9.4224e-05,1.212e-05,0.0,0 STARLINK-4553,1 53577U 22101BC  23362.42273209  .00001212  00000-0  94224-4 0  9999,2 53577  53.2185  55.3887 0001742  68.7045 291.4133 15.08838527 75331,6917.885,95.438,540.955,538.545,0.0
53577.0,STARLINK-4553,PAYLOAD,2023-12-29 09:59:31,15.08841726,0.0001408,53.218,50.9241,93.1381,266.9772,-1.395e-05,-5.1e-06,0.0,0 STARLINK-4553,1 53577U 22101BC  23363.41633109 -.00000510  00000-0 -13950-4 0  9997,2 53577  53.2180  50.9241 0001408  93.1381 266.9772 15.08841726 76304,6917.875,95.437,540.714,538.766,0.0
53577.0,STARLINK-4553,PAYLOAD,2023-12-29 22:42:36,15.08838613,0.0001517,53.2176,48.5478,82.1272,277.9892,3.6967e-05,3e-06,0.0,0 STARLINK-4553,1 53577U 22101BC  23363.94625153  .00000300  00000-0  36967-4 0  9993,2 53577  53.2176  48.5478 0001517  82.1272 277.9892 15.08838613 75565,6917.885,95.438,540.799,538.7,0.0
53577.0,STARLINK-4553,PAYLOAD,2023-12-30 09:50:17,15.08843515,0.0001679,53.2186,46.4685,102.0,258.118,0.00010615,1.402e-05,0.0,0 STARLINK-4553,1 53577U 22101BC  23364.40992589  .00001402  00000-0  10615-3 0  9990,2 53577  53.2186  46.4685 0001679 102.0000 258.1180 15.08843515 75639,6917.87,95.437,540.896,538.573,0.0
53577.0,STARLINK-4553,PAYLOAD,2023-12-31 03:19:33,15.08833787,0.0001627,53.2179,43.1979,92.9574,267.1604,-2.0455e-05,-6.13e-06,0.0,0 STARLINK-4553,1 53577U 22101BC  23365.13857742 -.00000613  00000-0 -20455-4 0  9991,2 53577  53.2179  43.1979 0001627  92.9574 267.1604 15.08833787 75740,6917.899,95.438,540.89,538.639,0.0
53577.0,STARLINK-4553,PAYLOAD,2023-12-31 09:41:05,15.08834413,0.0001612,53.2178,42.0063,98.898,261.2195,4.9471e-06,-2.09e-06,0.0,0 STARLINK-4553,1 53577U 22101BC  23365.40353666 -.00000209  00000-0  49471-5 0  9997,2 53577  53.2178  42.0063 0001612  98.8980 261.2195 15.08834413 76604,6917.897,95.438,540.878,538.647,0.0
53577.0,STARLINK-4553,PAYLOAD,2024-01-01 07:56:29,15.08837913,0.0001613,53.2179,37.8437,98.6421,261.4754,7.6944e-06,-1.66e-06,0.0,0 STARLINK-4553,1 53577U 22101BC  24001.33089660 -.00000166  00000-0  76944-5 0  9994,2 53577  53.2179  37.8437 0001613  98.6421 261.4754 15.08837913 75926,6917.887,95.438,540.868,538.636,0.0
53577.0,STARLINK-4553,PAYLOAD,2024-01-02 10:58:02,15.08839906,0.0001561,53.2182,32.7885,96.2802,263.8368,9.1389e-05,1.167e-05,0.0,0 STARLINK-4553,1 53577U 22101BC  24002.45697612  .00001167  00000-0  91389-4 0  9990,2 53577  53.2182  32.7885 0001561  96.2802 263.8368 15.08839906 76090,6917.881,95.438,540.826,538.666,0.0
53577.0,STARLINK-4553,PAYLOAD,2024-01-03 07:38:03,15.08838926,0.0001608,53.2186,28.9198,91.4981,268.6195,-7.457e-07,-3e-06,0.0,0 STARLINK-4553,1 53577U 22101BC  24003.31810165 -.00000300  00000-0 -74570-6 0  9991,2 53577  53.2186  28.9198 0001608  91.4981 268.6195 15.08838926 76222,6917.884,95.438,540.861,538.636,0.0
53577.0,STARLINK-4553,PAYLOAD,2024-01-04 05:53:27,15.08844437,0.0001622,53.2189,24.7588,92.5987,267.5191,4.6091e-05,4.46e-06,0.0,0 STARLINK-4553,1 53577U 22101BC  24004.24545707  .00000446  00000-0  46091-4 0  9995,2 53577  53.2189  24.7588 0001622  92.5987 267.5191 15.08844437 77180,6917.867,95.437,540.854,538.61,0.0
53577.0,STARLINK-4553,PAYLOAD,2024-01-04 23:22:42,15.08837242,0.0001207,53.2164,21.4875,102.9311,257.1816,-1.1954e-05,-4.78e-06,0.0,0 STARLINK-4553,1 53577U 22101BC  24004.97410280 -.00000478  00000-0 -11954-4 0  9999,2 53577  53.2164  21.4875 0001207 102.9311 257.1816 15.08837242 76478,6917.889,95.438,540.589,538.919,0.0
